[{"OBJECT_NAME":"DIRECTV 11","OBJECT_ID":"2008-013A","EPOCH":"2026-03-06T13:29:14.697888","MEAN_MOTION":1.00272331,"ECCENTRICITY":2.809e-5,"INCLINATION":0.0177,"RA_OF_ASC_NODE":334.4791,"ARG_OF_PERICENTER":9.1117,"MEAN_ANOMALY":283.8006,"EPHEMERIS_TYPE":0,"CLASSIFICATION_TYPE":"U","NORAD_CAT_ID":32729,"ELEMENT_SET_NO":999,"REV_AT_EPOCH":4456,"BSTAR":0,"MEAN_MOTION_DOT":-1.3e-6,"MEAN_MOTION_DDOT":0},{"OBJECT_NAME":"GALAXY 18 (G-18)","OBJECT_ID":"2008-024A","EPOCH":"2026-03-06T13:22:22.855872","MEAN_MOTION":1.00271782,"ECCENTRICITY":0.00032592,"INCLINATION":0.0228,"RA_OF_ASC_NODE":154.5117,"ARG_OF_PERICENTER":218.5909,"MEAN_ANOMALY":228.7869,"EPHEMERIS_TYPE":0,"CLASSIFICATION_TYPE":"U","NORAD_CAT_ID":32951,"ELEMENT_SET_NO":999,"REV_AT_EPOCH":4482,"BSTAR":0,"MEAN_MOTION_DOT":0,"MEAN_MOTION_DDOT":0},{"OBJECT_NAME":"INTELSAT 25 (IS-25)","OBJECT_ID":"2008-034A","EPOCH":"2026-03-06T10:23:03.219360","MEAN_MOTION":1.00272517,"ECCENTRICITY":0.0003713,"INCLINATION":2.4425,"RA_OF_ASC_NODE":81.5933,"ARG_OF_PERICENTER":237.9392,"MEAN_ANOMALY":328.8879,"EPHEMERIS_TYPE":0,"CLASSIFICATION_TYPE":"U","NORAD_CAT_ID":33153,"ELEMENT_SET_NO":999,"REV_AT_EPOCH":6466,"BSTAR":0,"MEAN_MOTION_DOT":-2.28e-6,"MEAN_MOTION_DDOT":0},{"OBJECT_NAME":"GALAXY 19 (G-19)","OBJECT_ID":"2008-045A","EPOCH":"2026-03-06T13:29:44.650176","MEAN_MOTION":1.00271491,"ECCENTRICITY":0.00027863,"INCLINATION":0.0433,"RA_OF_ASC_NODE":260.4694,"ARG_OF_PERICENTER":88.2077,"MEAN_ANOMALY":281.028,"EPHEMERIS_TYPE":0,"CLASSIFICATION_TYPE":"U","NORAD_CAT_ID":33376,"ELEMENT_SET_NO":999,"REV_AT_EPOCH":6387,"BSTAR":0,"MEAN_MOTION_DOT":-1.43e-6,"MEAN_MOTION_DDOT":0},{"OBJECT_NAME":"FM-5","OBJECT_ID":"2009-034A","EPOCH":"2026-03-06T13:32:51.851328","MEAN_MOTION":1.00271518,"ECCENTRICITY":9.42e-5,"INCLINATION":0.0388,"RA_OF_ASC_NODE":271.8279,"ARG_OF_PERICENTER":304.38,"MEAN_ANOMALY":65.1156,"EPHEMERIS_TYPE":0,"CLASSIFICATION_TYPE":"U","NORAD_CAT_ID":35493,"ELEMENT_SET_NO":999,"REV_AT_EPOCH":4561,"BSTAR":0,"MEAN_MOTION_DOT":-2.04e-6,"MEAN_MOTION_DDOT":0},{"OBJECT_NAME":"INTELSAT 14 (IS-14)","OBJECT_ID":"2009-064A","EPOCH":"2026-03-06T18:52:43.680288","MEAN_MOTION":1.00272602,"ECCENTRICITY":0.0002475,"INCLINATION":0.0272,"RA_OF_ASC_NODE":91.3809,"ARG_OF_PERICENTER":253.5274,"MEAN_ANOMALY":57.7792,"EPHEMERIS_TYPE":0,"CLASSIFICATION_TYPE":"U","NORAD_CAT_ID":36097,"ELEMENT_SET_NO":999,"REV_AT_EPOCH":5957,"BSTAR":0,"MEAN_MOTION_DOT":-2.77e-6,"MEAN_MOTION_DDOT":0},{"OBJECT_NAME":"INTELSAT 15 (IS-15)","OBJECT_ID":"2009-067A","EPOCH":"2026-03-06T19:29:47.624928","MEAN_MOTION":1.00270306,"ECCENTRICITY":0.0002374,"INCLINATION":0.0181,"RA_OF_ASC_NODE":163.0292,"ARG_OF_PERICENTER":198.1544,"MEAN_ANOMALY":180.9506,"EPHEMERIS_TYPE":0,"CLASSIFICATION_TYPE":"U","NORAD_CAT_ID":36106,"ELEMENT_SET_NO":999,"REV_AT_EPOCH":4020,"BSTAR":0,"MEAN_MOTION_DOT":0,"MEAN_MOTION_DDOT":0},{"OBJECT_NAME":"DIRECTV 12","OBJECT_ID":"2009-075A","EPOCH":"2026-03-06T13:28:07.305024","MEAN_MOTION":1.00272318,"ECCENTRICITY":3.647e-5,"INCLINATION":0.0028,"RA_OF_ASC_NODE":95.7619,"ARG_OF_PERICENTER":280.3135,"MEAN_ANOMALY":247.5154,"EPHEMERIS_TYPE":0,"CLASSIFICATION_TYPE":"U","NORAD_CAT_ID":36131,"ELEMENT_SET_NO":999,"REV_AT_EPOCH":4552,"BSTAR":0,"MEAN_MOTION_DOT":-1.08e-6,"MEAN_MOTION_DDOT":0},{"OBJECT_NAME":"INTELSAT 16 (IS-16)","OBJECT_ID":"2010-006A","EPOCH":"2026-03-06T13:35:44.075904","MEAN_MOTION":1.00272377,"ECCENTRICITY":0.00020185,"INCLINATION":0.0187,"RA_OF_ASC_NODE":110.1523,"ARG_OF_PERICENTER":244.2092,"MEAN_ANOMALY":297.6468,"EPHEMERIS_TYPE":0,"CLASSIFICATION_TYPE":"U","NORAD_CAT_ID":36397,"ELEMENT_SET_NO":999,"REV_AT_EPOCH":5862,"BSTAR":0,"MEAN_MOTION_DOT":-2.49e-6,"MEAN_MOTION_DDOT":0},{"OBJECT_NAME":"XM-5","OBJECT_ID":"2010-053A","EPOCH":"2026-03-06T13:24:37.639872","MEAN_MOTION":1.0027094,"ECCENTRICITY":0.00035696,"INCLINATION":0.0668,"RA_OF_ASC_NODE":273.7447,"ARG_OF_PERICENTER":252.7855,"MEAN_ANOMALY":83.6924,"EPHEMERIS_TYPE":0,"CLASSIFICATION_TYPE":"U","NORAD_CAT_ID":37185,"ELEMENT_SET_NO":999,"REV_AT_EPOCH":5645,"BSTAR":0,"MEAN_MOTION_DOT":-2.7e-7,"MEAN_MOTION_DDOT":0},{"OBJECT_NAME":"INTELSAT 17 (IS-17)","OBJECT_ID":"2010-065B","EPOCH":"2026-03-06T14:16:17.685696","MEAN_MOTION":1.00272934,"ECCENTRICITY":0.00024852,"INCLINATION":0.0162,"RA_OF_ASC_NODE":180.173,"ARG_OF_PERICENTER":170.8958,"MEAN_ANOMALY":93.3048,"EPHEMERIS_TYPE":0,"CLASSIFICATION_TYPE":"U","NORAD_CAT_ID":37238,"ELEMENT_SET_NO":999,"REV_AT_EPOCH":5221,"BSTAR":0,"MEAN_MOTION_DOT":-5.0e-8,"MEAN_MOTION_DDOT":0},{"OBJECT_NAME":"INTELSAT 28 (IS-28)","OBJECT_ID":"2011-016A","EPOCH":"2026-03-06T10:40:38.622144","MEAN_MOTION":1.00272008,"ECCENTRICITY":0.00046212,"INCLINATION":1.5405,"RA_OF_ASC_NODE":83.9567,"ARG_OF_PERICENTER":262.0273,"MEAN_ANOMALY":306.6316,"EPHEMERIS_TYPE":0,"CLASSIFICATION_TYPE":"U","NORAD_CAT_ID":37392,"ELEMENT_SET_NO":999,"REV_AT_EPOCH":5225,"BSTAR":0,"MEAN_MOTION_DOT":-2.29e-6,"MEAN_MOTION_DDOT":0},{"OBJECT_NAME":"INTELSAT 18 (IS-18)","OBJECT_ID":"2011-056A","EPOCH":"2026-03-06T18:14:09.877920","MEAN_MOTION":1.00274571,"ECCENTRICITY":0.0001915,"INCLINATION":0.0363,"RA_OF_ASC_NODE":264.239,"ARG_OF_PERICENTER":81.2133,"MEAN_ANOMALY":272.5553,"EPHEMERIS_TYPE":0,"CLASSIFICATION_TYPE":"U","NORAD_CAT_ID":37834,"ELEMENT_SET_NO":999,"REV_AT_EPOCH":5278,"BSTAR":0,"MEAN_MOTION_DOT":5.0e-7,"MEAN_MOTION_DDOT":0},{"OBJECT_NAME":"INTELSAT 22 (IS-22)","OBJECT_ID":"2012-011A","EPOCH":"2026-03-06T14:18:02.519136","MEAN_MOTION":1.00271339,"ECCENTRICITY":0.00016616,"INCLINATION":0.0064,"RA_OF_ASC_NODE":156.1408,"ARG_OF_PERICENTER":209.4389,"MEAN_ANOMALY":85.3453,"EPHEMERIS_TYPE":0,"CLASSIFICATION_TYPE":"U","NORAD_CAT_ID":38098,"ELEMENT_SET_NO":999,"REV_AT_EPOCH":615,"BSTAR":0,"MEAN_MOTION_DOT":-6.2e-7,"MEAN_MOTION_DDOT":0},{"OBJECT_NAME":"INTELSAT 19 (IS-19)","OBJECT_ID":"2012-030A","EPOCH":"2026-03-06T18:39:38.672352","MEAN_MOTION":1.00272951,"ECCENTRICITY":0.0003018,"INCLINATION":0.0201,"RA_OF_ASC_NODE":140.4423,"ARG_OF_PERICENTER":208.0823,"MEAN_ANOMALY":261.8648,"EPHEMERIS_TYPE":0,"CLASSIFICATION_TYPE":"U","NORAD_CAT_ID":38356,"ELEMENT_SET_NO":999,"REV_AT_EPOCH":4942,"BSTAR":0,"MEAN_MOTION_DOT":-6.0e-7,"MEAN_MOTION_DDOT":0},{"OBJECT_NAME":"INTELSAT 20 (IS-20)","OBJECT_ID":"2012-043A","EPOCH":"2026-03-06T14:17:02.613696","MEAN_MOTION":1.00271229,"ECCENTRICITY":0.00025587,"INCLINATION":0.0199,"RA_OF_ASC_NODE":139.426,"ARG_OF_PERICENTER":28.4259,"MEAN_ANOMALY":279.2167,"EPHEMERIS_TYPE":0,"CLASSIFICATION_TYPE":"U","NORAD_CAT_ID":38740,"ELEMENT_SET_NO":999,"REV_AT_EPOCH":4971,"BSTAR":0,"MEAN_MOTION_DOT":-2.8e-7,"MEAN_MOTION_DDOT":0},{"OBJECT_NAME":"INTELSAT 21 (IS-21)","OBJECT_ID":"2012-045A","EPOCH":"2026-03-06T18:48:59.040288","MEAN_MOTION":1.00272535,"ECCENTRICITY":0.000185,"INCLINATION":0.0237,"RA_OF_ASC_NODE":245.028,"ARG_OF_PERICENTER":110.0216,"MEAN_ANOMALY":33.6918,"EPHEMERIS_TYPE":0,"CLASSIFICATION_TYPE":"U","NORAD_CAT_ID":38749,"ELEMENT_SET_NO":999,"REV_AT_EPOCH":4949,"BSTAR":0,"MEAN_MOTION_DOT":-2.88e-6,"MEAN_MOTION_DDOT":0}]
